STARLINK-31187          
1 58790U 24012D   26068.96342531  .00000327  00000+0  21422-4 0  9999
2 58790  43.0030 164.0660 0001509 274.5972  85.4707 15.27574505121270
HERMES-3                
1 63835U 25052BR  26068.93751242  .00020316  00000+0  69958-3 0  9995
2 63835  97.3987 324.6131 0007993 112.9583 247.2502 15.30039785 54863
